SL-14 R/B               
1 21423U 91042B   26027.36392118  .00000641  00000+0  78056-4 0  9998
2 21423  82.4910 258.9440 0017624  21.7696 338.4263 14.81789744846955
ERS-1                   
1 21574U 91050A   26027.47691216  .00000630  00000+0  21624-3 0  9993
2 21574  98.7898  44.6756 0031376 326.2226  33.6961 14.39412187809808
ARIANE 40 R/B           
1 21610U 91050F   26027.62582212  .00000572  00000+0  18379-3 0  9994
2 21610  98.2098  81.3864 0003097 176.4329 183.6884 14.42860658813070
INTERCOSMOS 25          
1 21819U 91086A   26027.54080870  .00001948  00000+0  38379-3 0  9998
2 21819  82.6092 334.8747 1486251 205.6010 146.3632 12.11887748491700
SL-8 R/B                
1 21876U 92008B   26027.28438256  .00000090  00000+0  77688-4 0  9996
2 21876  82.9283 298.5770 0033367 249.8779 227.1003 13.75968534703729
SL-8 R/B                
1 21938U 92020B   26027.52239845  .00000201  00000+0  19212-3 0  9991
2 21938  82.9310 184.3193 0029960  54.3870  10.0651 13.75542334695471
USA 81                  
1 21949U 92023A   26027.44251849  .00000386  00000+0  13575-3 0  9995
2 21949  85.0115 155.2222 0002245 112.7449 247.3981 14.32350803 88882
COSMOS 2219             
1 22219U 92076A   26027.63411769 -.00000208  00000+0 -84445-4 0  9994
2 22219  71.0607 103.8986 0020768 264.0753  95.8002 14.14080207712577
SL-16 R/B               
1 22220U 92076B   26027.67195778 -.00000022  00000+0  13080-4 0  9999
2 22220  70.9991 274.7785 0012249 167.7919 222.3938 14.16850371716024
COSMOS 2221             
1 22236U 92080A   26027.50521599  .00003572  00000+0  31564-3 0  9995
2 22236  82.5063 318.5179 0013869 338.1625  21.9004 14.96015542774630
SL-16 R/B               
1 22285U 92093B   26027.60939817 -.00000055  00000+0 -37178-5 0  9994
2 22285  71.0218  90.5081 0004662 337.6636  22.4284 14.15443674707347
COSMOS 2228             
1 22286U 92094A   26027.61530273  .00003410  00000+0  29308-3 0  9990
2 22286  82.5175 276.6389 0019624  80.5709 279.7731 14.96993536769915
